[{"OBJECT_NAME":"LEOPARD","OBJECT_ID":"1998-067YD","EPOCH":"2026-03-09T14:18:57.773664","MEAN_MOTION":15.51994489,"ECCENTRICITY":0.0007827,"INCLINATION":51.632,"RA_OF_ASC_NODE":72.287,"ARG_OF_PERICENTER":153.8657,"MEAN_ANOMALY":206.2729,"EPHEMERIS_TYPE":0,"CLASSIFICATION_TYPE":"U","NORAD_CAT_ID":67687,"ELEMENT_SET_NO":999,"REV_AT_EPOCH":469,"BSTAR":0.00066276,"MEAN_MOTION_DOT":0.00040393,"MEAN_MOTION_DDOT":0},{"OBJECT_NAME":"CSSWE","OBJECT_ID":"2012-048D","EPOCH":"2026-03-09T08:13:05.901888","MEAN_MOTION":15.39093253,"ECCENTRICITY":0.00676686,"INCLINATION":64.6623,"RA_OF_ASC_NODE":70.3925,"ARG_OF_PERICENTER":202.9126,"MEAN_ANOMALY":156.8988,"EPHEMERIS_TYPE":0,"CLASSIFICATION_TYPE":"U","NORAD_CAT_ID":38761,"ELEMENT_SET_NO":999,"REV_AT_EPOCH":10100,"BSTAR":0.00070329542,"MEAN_MOTION_DOT":0.0002953,"MEAN_MOTION_DDOT":0}]
